Unnamed: 0,NORAD_CAT_ID,OBJECT_NAME,EPOCH,MEAN_MOTION,ECCENTRICITY,INCLINATION,RA_OF_ASC_NODE,ARG_OF_PERICENTER,MEAN_ANOMALY,BSTAR,MEAN_MOTION_DOT,MEAN_MOTION_DDOT,TLE_LINE1,TLE_LINE2,SEMIMAJOR_AXIS,PERIOD,APOGEE,PERIGEE,alltitude
2478282,48481,STARLINK-2706,2022-03-26 03:01:15.721824,15.06400875,0.0001628,53.0542,206.5205,63.4645,296.651,1.5909e-05,-4.5e-07,0,1 48481U 21040BF  22085.12587641 -.00000045  00000-0  15909-4 0  9991,2 48481  53.0542 206.5205 0001628  63.4645 296.6510 15.06400875 49896,6925.346,95.592,548.338,546.083,547.5879862834121
2475639,48481,STARLINK-2706,2022-03-25 15:52:28.814304,15.06405136,0.0001607,53.0543,208.6051,62.6166,297.4986,0.0001087,1.338e-05,0,1 48481U 21040BF  22084.66144461  .00001338  00000-0  10870-3 0  9994,2 48481  53.0543 208.6051 0001607  62.6166 297.4986 15.06405136 48547,6925.333,95.592,548.311,546.085,547.5674863862229
2475638,48481,STARLINK-2706,2022-03-25 15:52:28.814304,15.06405136,0.0001607,53.0543,208.6051,62.6166,297.4986,0.0001087,1.338e-05,0,1 48481U 21040BF  22084.66144461  .00001338  00000-0  10870-3 0  9994,2 48481  53.0543 208.6051 0001607  62.6166 297.4986 15.06405136 49829,6925.333,95.592,548.311,546.085,547.5674863862229
2475405,48481,STARLINK-2706,2022-03-25 14:16:56.612352,15.06403017,0.0001606,53.0542,208.903,62.5097,297.6055,8.9771e-05,1.056e-05,0,1 48481U 21040BF  22084.59509968  .00001056  00000-0  89771-4 0  9997,2 48481  53.0542 208.9030 0001606  62.5097 297.6055 15.06403017 48531,6925.339,95.592,548.317,546.092,547.5708988580221
2472272,48481,STARLINK-2706,2022-03-25 03:08:10.497984,15.06394751,0.0001561,53.0544,210.9879,61.6573,298.4573,9.4308e-05,1.123e-05,0,1 48481U 21040BF  22084.13067706  .00001123  00000-0  94308-4 0  9993,2 48481  53.0544 210.9879 0001561  61.6573 298.4573 15.06394751 49748,6925.365,95.592,548.311,546.149,547.5956021021312
2469067,48481,STARLINK-2706,2022-03-24 17:34:55.602336,15.0640004,0.0001529,53.0544,212.7747,62.6121,297.5023,0.00020554,2.781e-05,0,1 48481U 21040BF  22083.73258799  .00002781  00000-0  20554-3 0  9994,2 48481  53.0544 212.7747 0001529  62.6121 297.5023 15.06400040 48407,6925.348,95.592,548.272,546.155,547.6063259690472
2469065,48481,STARLINK-2706,2022-03-24 17:34:55.602336,15.0640004,0.0001529,53.0544,212.7747,62.6121,297.5023,0.00020554,2.781e-05,0,1 48481U 21040BF  22083.73258799  .00002781  00000-0  20554-3 0  9994,2 48481  53.0544 212.7747 0001529  62.6121 297.5023 15.06400040 49688,6925.348,95.592,548.272,546.155,547.6063259690472
2467563,48481,STARLINK-2706,2022-03-24 12:48:18.894528,15.06396848,0.0002012,53.053,213.6677,46.8192,313.2965,0.00012282,1.548e-05,0,1 48481U 21040BF  22083.53355202  .00001548  00000-0  12282-3 0  9998,2 48481  53.0530 213.6677 0002012  46.8192 313.2965 15.06396848 48371,6925.358,95.592,548.617,545.83,547.1517095366592
2463398,48481,STARLINK-2706,2022-03-23 16:06:17.675424,15.06406723,0.0001581,53.0544,217.5405,62.5283,297.5867,7.4762e-05,8.32e-06,0,1 48481U 21040BF  22082.67103791  .00000832  00000-0  74762-4 0  9993,2 48481  53.0544 217.5405 0001581  62.5283 297.5867 15.06406723 48249,6925.328,95.592,548.288,546.098,547.5683667348749
2461317,48481,STARLINK-2706,2022-03-23 11:19:40.835424,15.06402414,0.000156,53.0544,218.4339,62.3724,297.7424,2.8957e-05,1.5e-06,0,1 48481U 21040BF  22082.47200041  .00000150  00000-0  28957-4 0  9995,2 48481  53.0544 218.4339 0001560  62.3724 297.7424 15.06402414 48211,6925.341,95.592,548.287,546.126,547.5869060959129
2461316,48481,STARLINK-2706,2022-03-23 11:19:40.835424,15.06402414,0.000156,53.0544,218.4339,62.3724,297.7424,2.8957e-05,1.5e-06,0,1 48481U 21040BF  22082.47200041  .00000150  00000-0  28957-4 0  9995,2 48481  53.0544 218.4339 0001560  62.3724 297.7424 15.06402414 49492,6925.341,95.592,548.287,546.126,547.5869060959129
2457562,48481,STARLINK-2706,2022-03-22 16:13:13.771200,15.06397349,0.0001515,53.0543,222.0077,59.9928,300.1211,-0.00012313,-2.115e-05,0,1 48481U 21040BF  22081.67584580 -.00002115  00000-0 -12313-3 0  9992,2 48481  53.0543 222.0077 0001515  59.9928 300.1211 15.06397349 48097,6925.357,95.592,548.271,546.172,547.5730237465997
2456123,48481,STARLINK-2706,2022-03-22 13:02:08.360448,15.06398193,0.00015,53.0543,222.6033,60.2111,299.9027,-0.00014818,-2.488e-05,0,1 48481U 21040BF  22081.54315232 -.00002488  00000-0 -14818-3 0  9999,2 48481  53.0543 222.6033 0001500  60.2111 299.9027 15.06398193 48074,6925.354,95.592,548.258,546.18,547.5812127355534
2455323,48481,STARLINK-2706,2022-03-22 11:26:36.114432,15.06396665,0.000151,53.0547,222.9024,58.1946,301.919,-0.00015024,-2.518e-05,0,1 48481U 21040BF  22081.47680688 -.00002518  00000-0 -15024-3 0  9995,2 48481  53.0547 222.9024 0001510  58.1946 301.9190 15.06396665 49342,6925.359,95.592,548.27,546.178,547.5490512503287
2451830,48481,STARLINK-2706,2022-03-21 19:31:11.195328,15.06416214,0.0001468,53.0543,225.8801,61.3692,298.7445,8.749e-05,1.022e-05,0,1 48481U 21040BF  22080.81332402  .00001022  00000-0  87490-4 0  9994,2 48481  53.0543 225.8801 0001468  61.3692 298.7445 15.06416214 47964,6925.299,95.591,548.18,546.147,547.5537013107793
2449884,48481,STARLINK-2706,2022-03-21 13:09:02.954880,15.06413485,0.0001449,53.0535,227.0709,63.1431,296.9706,9.7564e-05,1.173e-05,0,1 48481U 21040BF  22080.54794092  .00001173  00000-0  97564-4 0  9991,2 48481  53.0535 227.0709 0001449  63.1431 296.9706 15.06413485 47929,6925.307,95.591,548.176,546.169,547.5950260424277
2449114,48481,STARLINK-2706,2022-03-21 11:33:29.774304,15.06413925,0.0001442,53.0535,227.3687,63.0183,297.0953,0.0001103,1.362e-05,0,1 48481U 21040BF  22080.48159461  .00001362  00000-0  11030-3 0  9992,2 48481  53.0535 227.3687 0001442  63.0183 297.0953 15.06413925 49199,6925.306,95.591,548.17,546.172,547.5990568213127
2445939,48481,STARLINK-2706,2022-03-20 19:38:06.506304,15.06420244,0.0001393,53.0534,230.3473,60.0646,300.0481,0.0003509,4.952e-05,0,1 48481U 21040BF  22079.81813086  .00004952  00000-0  35090-3 0  9997,2 48481  53.0534 230.3473 0001393  60.0646 300.0481 15.06420244 47811,6925.287,95.591,548.116,546.187,547.5494183234701
2445938,48481,STARLINK-2706,2022-03-20 19:38:06.506304,15.06420244,0.0001393,53.0534,230.3473,60.0646,300.0481,0.0003509,4.952e-05,0,1 48481U 21040BF  22079.81813086  .00004952  00000-0  35090-3 0  9997,2 48481  53.0534 230.3473 0001393  60.0646 300.0481 15.06420244 49093,6925.287,95.591,548.116,546.187,547.5494183234701
2443393,48481,STARLINK-2706,2022-03-20 11:40:25.619520,15.06420188,0.0001404,53.0533,231.8367,59.6435,300.4693,0.00047172,6.755e-05,0,1 48481U 21040BF  22079.48640118  .00006755  00000-0  47172-3 0  9991,2 48481  53.0533 231.8367 0001404  59.6435 300.4693 15.06420188 47761,6925.287,95.591,548.124,546.179,547.5362652410258
2439754,48481,STARLINK-2706,2022-03-19 18:09:29.809728,15.06410378,0.0001356,53.0531,235.113,59.7095,300.4028,0.000488,6.997e-05,0,1 48481U 21040BF  22078.75659502  .00006997  00000-0  48800-3 0  9994,2 48481  53.0531 235.1130 0001356  59.7095 300.4028 15.06410378 48935,6925.317,95.591,548.121,546.243,547.5896662627989
2439755,48481,STARLINK-2706,2022-03-19 18:09:29.809728,15.06410378,0.0001356,53.0531,235.113,59.7095,300.4028,0.000488,6.997e-05,0,1 48481U 21040BF  22078.75659502  .00006997  00000-0  48800-3 0  9994,2 48481  53.0531 235.1130 0001356  59.7095 300.4028 15.06410378 47653,6925.317,95.591,548.121,546.243,547.5896662627989
2436942,48481,STARLINK-2706,2022-03-19 10:11:48.264288,15.06401938,0.000134,53.0532,236.6023,60.5016,299.6107,0.00039785,5.65e-05,0,1 48481U 21040BF  22078.42486417  .00005650  00000-0  39785-3 0  9998,2 48481  53.0532 236.6023 0001340  60.5016 299.6107 15.06401938 47601,6925.343,95.592,548.136,546.28,547.6281829116563
2433822,48481,STARLINK-2706,2022-03-18 18:16:24.758688,15.0639101,0.0001377,53.0533,239.5811,57.4844,302.6277,0.00036077,5.095e-05,0,1 48481U 21040BF  22077.76139767  .00005095  00000-0  36077-3 0  9991,2 48481  53.0533 239.5811 0001377  57.4844 302.6277 15.06391010 47504,6925.376,95.593,548.195,546.287,547.609730830154
2433820,48481,STARLINK-2706,2022-03-18 18:16:24.758688,15.0639101,0.0001377,53.0533,239.5811,57.4844,302.6277,0.00036077,5.095e-05,0,1 48481U 21040BF  22077.76139767  .00005095  00000-0  36077-3 0  9991,2 48481  53.0533 239.5811 0001377  57.4844 302.6277 15.06391010 48785,6925.376,95.593,548.195,546.287,547.609730830154
2432509,48481,STARLINK-2706,2022-03-18 13:29:47.656032,15.06382614,0.0001341,53.0541,240.4749,59.3401,300.772,0.00029582,4.125e-05,0,1 48481U 21040BF  22077.56235713  .00004125  00000-0  29582-3 0  9993,2 48481  53.0541 240.4749 0001341  59.3401 300.7720 15.06382614 47473,6925.402,95.593,548.196,546.338,547.6737968319025
2428777,48481,STARLINK-2706,2022-03-17 21:34:22.850112,15.06394374,0.0001335,53.0548,243.4538,64.3138,295.7989,-0.00011468,-1.989e-05,0,1 48481U 21040BF  22076.89887558 -.00001989  00000-0 -11468-3 0  9999,2 48481  53.0548 243.4538 0001335  64.3138 295.7989 15.06394374 47370,6925.366,95.592,548.155,546.306,547.7120853946072
2427035,48481,STARLINK-2706,2022-03-17 13:36:41.278752,15.06381116,0.0001401,53.0549,244.9431,65.1886,294.9248,2.6104e-05,1.07e-06,0,1 48481U 21040BF  22076.56714443  .00000107  00000-0  26104-4 0  9998,2 48481  53.0549 244.9431 0001401  65.1886 294.9248 15.06381116 47326,6925.406,95.593,548.242,546.301,547.7419673318952
2426600,48481,STARLINK-2706,2022-03-17 12:01:08.916096,15.06380206,0.0001412,53.0548,245.241,64.6977,295.4158,1.5175e-05,-5.5e-07,0,1 48481U 21040BF  22076.50079764 -.00000055  00000-0  15175-4 0  9991,2 48481  53.0548 245.2410 0001412  64.6977 295.4158 15.06380206 48598,6925.409,95.593,548.252,546.296,547.7387512927759
2423129,48481,STARLINK-2706,2022-03-16 18:30:11.925504,15.06377232,0.0001513,53.0532,248.5168,64.8408,295.2738,-0.00019605,-3.199e-05,0,1 48481U 21040BF  22075.77097136 -.00003199  00000-0 -19605-3 0  9996,2 48481  53.0532 248.5168 0001513  64.8408 295.2738 15.06377232 47204,6925.418,95.594,548.331,546.236,547.7201707831107
